NORAD_CAT_ID,OBJECT_NAME,OBJECT_TYPE,EPOCH,MEAN_MOTION,ECCENTRICITY,INCLINATION,RA_OF_ASC_NODE,ARG_OF_PERICENTER,MEAN_ANOMALY,BSTAR,MEAN_MOTION_DOT,MEAN_MOTION_DDOT,TLE_LINE0,TLE_LINE1,TLE_LINE2,SEMIMAJOR_AXIS,PERIOD,APOGEE,PERIGEE,DECAYED
52565.0,STARLINK-3911,PAYLOAD,2023-04-23 13:08:07,15.08838251,0.0001268,53.2135,157.8799,75.5481,284.5652,2.181e-05,5.9e-07,0.0,0 STARLINK-3911,1 52565U 22051AJ  23113.54731154  .00000059  00000-0  21810-4 0  9993,2 52565  53.2135 157.8799 0001268  75.5481 284.5652 15.08838251 52894,6917.886,95.438,540.628,538.874,0.0
52565.0,STARLINK-3911,PAYLOAD,2023-04-24 03:26:35,15.08858231,0.0001305,53.2149,155.2039,92.618,267.4961,0.00023193,3.407e-05,0.0,0 STARLINK-3911,1 52565U 22051AJ  23114.14346232  .00003407  00000-0  23193-3 0  9994,2 52565  53.2149 155.2039 0001305  92.6180 267.4961 15.08858231 53058,6917.825,95.436,540.592,538.787,0.0
52565.0,STARLINK-3911,PAYLOAD,2023-04-24 11:23:29,15.08872739,0.0001449,53.2143,153.7171,87.3941,272.7217,0.00045292,6.934e-05,0.0,0 STARLINK-3911,1 52565U 22051AJ  23114.47465266  .00006934  00000-0  45292-3 0  9991,2 52565  53.2143 153.7171 0001449  87.3941 272.7217 15.08872739 53105,6917.78,95.435,540.648,538.643,0.0
52565.0,STARLINK-3911,PAYLOAD,2023-04-25 12:49:42,15.08820912,0.0001005,53.214,148.9599,94.2296,265.8811,-0.00030543,-5.143e-05,0.0,0 STARLINK-3911,1 52565U 22051AJ  23115.53451510 -.00005143  00000-0 -30543-3 0  9992,2 52565  53.2140 148.9599 0001005  94.2296 265.8811 15.08820912 53266,6917.939,95.439,540.499,539.108,0.0
52565.0,STARLINK-3911,PAYLOAD,2023-04-26 11:05:05,15.0885155,0.0001324,53.2145,144.7974,55.9202,304.1915,-0.00092631,-0.00015004,0.0,0 STARLINK-3911,1 52565U 22051AJ  23116.46187251 -.00015004  00000-0 -92631-3 0  9996,2 52565  53.2145 144.7974 0001324  55.9202 304.1915 15.08851550 53339,6917.845,95.437,540.626,538.794,0.0
52565.0,STARLINK-3911,PAYLOAD,2023-04-26 19:02:03,15.08827009,0.0001331,53.2146,143.3103,66.575,293.5382,0.00020175,2.923e-05,0.0,0 STARLINK-3911,1 52565U 22051AJ  23116.79309104  .00002923  00000-0  20175-3 0  9993,2 52565  53.2146 143.3103 0001331  66.5750 293.5382 15.08827009 53389,6917.92,95.438,540.706,538.864,0.0
52565.0,STARLINK-3911,PAYLOAD,2023-04-27 09:20:31,15.0883985,0.0001405,53.2146,140.6333,67.0726,293.0414,0.00045421,6.948e-05,0.0,0 STARLINK-3911,1 52565U 22051AJ  23117.38925031  .00006948  00000-0  45421-3 0  9994,2 52565  53.2146 140.6333 0001405  67.0726 293.0414 15.08839850 53473,6917.881,95.438,540.718,538.774,0.0
52565.0,STARLINK-3911,PAYLOAD,2023-04-28 06:00:30,15.08859464,0.0001382,53.2148,136.768,65.471,294.6426,0.00042239,6.444e-05,0.0,0 STARLINK-3911,1 52565U 22051AJ  23118.25035873  .00006444  00000-0  42239-3 0  9992,2 52565  53.2148 136.7680 0001382  65.4710 294.6426 15.08859464 53670,6917.821,95.436,540.642,538.73,0.0
52565.0,STARLINK-3911,PAYLOAD,2023-04-28 07:35:54,15.08863723,0.0001444,53.2144,136.4711,64.791,295.3231,0.00050291,7.73e-05,0.0,0 STARLINK-3911,1 52565U 22051AJ  23118.31659798  .00007730  00000-0  50291-3 0  9993,2 52565  53.2144 136.4711 0001444  64.7910 295.3231 15.08863723 53610,6917.808,95.436,540.672,538.674,0.0
52565.0,STARLINK-3911,PAYLOAD,2023-04-29 04:15:54,15.08847353,0.0001608,53.2147,132.6065,65.4659,294.6501,-0.00011989,-2.196e-05,0.0,0 STARLINK-3911,1 52565U 22051AJ  23119.17771464 -.00002196  00000-0 -11989-3 0  9997,2 52565  53.2147 132.6065 0001608  65.4659 294.6501 15.08847353 53818,6917.858,95.437,540.835,538.611,0.0
52565.0,STARLINK-3911,PAYLOAD,2023-04-29 10:37:26,15.08849884,0.0001365,53.2151,131.4143,76.8154,283.299,-1.0678e-05,-4.58e-06,0.0,0 STARLINK-3911,1 52565U 22051AJ  23119.44267302 -.00000458  00000-0 -10678-4 0  9992,2 52565  53.2151 131.4143 0001365  76.8154 283.2990 15.08849884 53786,6917.85,95.437,540.659,538.771,0.0
52565.0,STARLINK-3911,PAYLOAD,2023-04-30 07:17:27,15.08844914,0.000143,53.2148,127.5496,74.1653,285.9497,-0.00011935,-2.187e-05,0.0,0 STARLINK-3911,1 52565U 22051AJ  23120.30379253 -.00002187  00000-0 -11935-3 0  9995,2 52565  53.2148 127.5496 0001430  74.1653 285.9497 15.08844914 53989,6917.865,95.437,540.72,538.741,0.0
52565.0,STARLINK-3911,PAYLOAD,2023-05-01 05:32:52,15.08835784,0.0001378,53.2148,123.3841,84.269,275.8459,4.9103e-05,4.94e-06,0.0,0 STARLINK-3911,1 52565U 22051AJ  23121.23115915  .00000494  00000-0  49103-4 0  9997,2 52565  53.2148 123.3841 0001378  84.2690 275.8459 15.08835784 54129,6917.893,95.438,540.712,538.805,0.0
52565.0,STARLINK-3911,PAYLOAD,2023-05-01 10:19:01,15.08835313,0.000144,53.2153,122.4924,88.6715,271.4442,4.9211e-05,4.95e-06,0.0,0 STARLINK-3911,1 52565U 22051AJ  23121.42987982  .00000495  00000-0  49211-4 0  9990,2 52565  53.2153 122.4924 0001440  88.6715 271.4442 15.08835313 54080,6917.895,95.438,540.756,538.764,0.0
52565.0,STARLINK-3911,PAYLOAD,2023-05-02 06:59:02,15.08840987,0.0001448,53.2158,118.6278,86.7174,273.3984,0.00012456,1.695e-05,0.0,0 STARLINK-3911,1 52565U 22051AJ  23122.29099714  .00001695  00000-0  12456-3 0  9996,2 52565  53.2158 118.6278 0001448  86.7174 273.3984 15.08840987 54287,6917.877,95.437,540.744,538.741,0.0
52565.0,STARLINK-3911,PAYLOAD,2023-05-02 16:31:21,15.08837909,0.0001447,53.2159,116.8436,87.3021,272.8137,0.00010857,1.44e-05,0.0,0 STARLINK-3911,1 52565U 22051AJ  23122.68844025  .00001440  00000-0  10857-3 0  9993,2 52565  53.2159 116.8436 0001447  87.3021 272.8137 15.08837909 54274,6917.887,95.438,540.753,538.751,0.0
52565.0,STARLINK-3911,PAYLOAD,2023-05-03 05:14:26,15.08838206,0.0001433,53.2161,114.4644,87.6035,272.5121,9.2903e-05,1.191e-05,0.0,0 STARLINK-3911,1 52565U 22051AJ  23123.21836176  .00001191  00000-0  92903-4 0  9997,2 52565  53.2161 114.4644 0001433  87.6035 272.5121 15.08838206 54423,6917.886,95.438,540.742,538.76,0.0
52565.0,STARLINK-3911,PAYLOAD,2023-05-03 08:25:12,15.08840215,0.0001446,53.2162,113.8697,88.5994,271.5164,0.00010592,1.398e-05,0.0,0 STARLINK-3911,1 52565U 22051AJ  23123.35084030  .00001398  00000-0  10592-3 0  9998,2 52565  53.2162 113.8697 0001446  88.5994 271.5164 15.08840215 54376,6917.88,95.438,540.745,538.744,0.0
52565.0,STARLINK-3911,PAYLOAD,2023-05-04 08:15:59,15.0884396,0.0001472,53.2161,109.4081,87.1011,273.0149,6.515e-05,7.49e-06,0.0,0 STARLINK-3911,1 52565U 22051AJ  23124.34443833  .00000749  00000-0  65150-4 0  9998,2 52565  53.2161 109.4081 0001472  87.1011 273.0149 15.08843960 54591,6917.868,95.437,540.752,538.715,0.0
52565.0,STARLINK-3911,PAYLOAD,2023-05-04 22:34:28,15.0883435,0.0001486,53.2164,106.7326,90.3202,269.7961,1.9941e-05,2.9e-07,0.0,0 STARLINK-3911,1 52565U 22051AJ  23124.94060702  .00000029  00000-0  19941-4 0  9992,2 52565  53.2164 106.7326 0001486  90.3202 269.7961 15.08834350 54686,6917.898,95.438,540.791,538.735,0.0
52565.0,STARLINK-3911,PAYLOAD,2023-05-05 16:03:42,15.08838718,0.0001302,53.2162,103.4602,97.0599,263.0541,5.1718e-05,5.35e-06,0.0,0 STARLINK-3911,1 52565U 22051AJ  23125.66924465  .00000535  00000-0  51718-4 0  9997,2 52565  53.2162 103.4602 0001302  97.0599 263.0541 15.08838718 54723,6917.884,95.438,540.65,538.849,0.0
52565.0,STARLINK-3911,PAYLOAD,2023-05-06 01:36:01,15.08846431,0.0001226,53.2157,101.6763,93.7189,266.3943,9.3553e-05,1.202e-05,0.0,0 STARLINK-3911,1 52565U 22051AJ  23126.06667887  .00001202  00000-0  93553-4 0  9999,2 52565  53.2157 101.6763 0001226  93.7189 266.3943 15.08846431 54855,6917.861,95.437,540.574,538.878,0.0
52565.0,STARLINK-3911,PAYLOAD,2023-05-06 07:57:33,15.08851336,0.0001248,53.2157,100.4866,95.5725,264.5409,0.00013812,1.912e-05,0.0,0 STARLINK-3911,1 52565U 22051AJ  23126.33163465  .00001912  00000-0  13812-3 0  9999,2 52565  53.2157 100.4866 0001248  95.5725 264.5409 15.08851336 54820,6917.846,95.437,540.574,538.847,0.0
52565.0,STARLINK-3911,PAYLOAD,2023-05-07 04:37:34,15.08840829,0.0001172,53.2149,96.6203,92.9947,267.1179,0.00012401,1.686e-05,0.0,0 STARLINK-3911,1 52565U 22051AJ  23127.19276127  .00001686  00000-0  12401-3 0  9995,2 52565  53.2149  96.6203 0001172  92.9947 267.1179 15.08840829 55026,6917.878,95.438,540.554,538.932,0.0
52565.0,STARLINK-3911,PAYLOAD,2023-05-08 04:28:22,15.08839383,0.0001105,53.2154,92.158,89.4705,270.6414,-3.621e-05,-8.64e-06,0.0,0 STARLINK-3911,1 52565U 22051AJ  23128.18636811 -.00000864  00000-0 -36210-4 0  9999,2 52565  53.2154  92.1580 0001105  89.4705 270.6414 15.08839383 55170,6917.882,95.438,540.512,538.983,0.0
52565.0,STARLINK-3911,PAYLOAD,2023-05-08 14:00:40,15.08842105,0.0001125,53.2154,90.3737,88.9776,271.1345,1.8313e-05,4e-08,0.0,0 STARLINK-3911,1 52565U 22051AJ  23128.58380460  .00000004  00000-0  18313-4 0  9997,2 52565  53.2154  90.3737 0001125  88.9776 271.1345 15.08842105 55162,6917.874,95.437,540.517,538.961,0.0
52565.0,STARLINK-3911,PAYLOAD,2023-05-09 04:19:08,15.08842783,0.0001138,53.2164,87.6985,93.3012,266.811,0.00012996,1.781e-05,0.0,0 STARLINK-3911,1 52565U 22051AJ  23129.17996127  .00001781  00000-0  12996-3 0  9999,2 52565  53.2164  87.6985 0001138  93.3012 266.8110 15.08842783 55257,6917.872,95.437,540.524,538.95,0.0
52565.0,STARLINK-3911,PAYLOAD,2023-05-10 04:09:56,15.08836514,0.0001425,53.2174,83.2438,116.4332,243.6807,7.3334e-05,8.79e-06,0.0,0 STARLINK-3911,1 52565U 22051AJ  23130.17356911  .00000879  00000-0  73334-4 0  9993,2 52565  53.2174  83.2438 0001425 116.4332 243.6807 15.08836514 55402,6917.891,95.438,540.742,538.77,0.0
52565.0,STARLINK-3911,PAYLOAD,2023-05-11 04:00:43,15.08846199,0.0001187,53.2171,78.7813,106.9764,253.1358,-1.0271e-05,-4.51e-06,0.0,0 STARLINK-3911,1 52565U 22051AJ  23131.16716667 -.00000451  00000-0 -10271-4 0  9990,2 52565  53.2171  78.7813 0001187 106.9764 253.1358 15.08846199 55556,6917.861,95.437,540.548,538.905,0.0
52565.0,STARLINK-3911,PAYLOAD,2023-05-12 03:51:31,15.08837665,0.0001205,53.2177,74.3202,90.6985,269.4145,7.5014e-06,-1.68e-06,0.0,0 STARLINK-3911,1 52565U 22051AJ  23132.16077563 -.00000168  00000-0  75014-5 0  9997,2 52565  53.2177  74.3202 0001205  90.6985 269.4145 15.08837665 55700,6917.888,95.438,540.586,538.919,0.0
